CCSDS_OMM_VERS = 2.0
CREATION_DATE  = 
ORIGINATOR     = 

OBJECT_NAME    = CZ-2C R/B
OBJECT_ID      = 2022-132E
CENTER_NAME    = EARTH
REF_FRAME      = TEME
TIME_SYSTEM    = UTC
MEAN_ELEMENT_THEORY = SGP/SGP4

EPOCH          = 2026-01-24T22:36:59.448672
MEAN_MOTION    = 15.58003215
ECCENTRICITY   = .00166678
INCLINATION    = 97.2960
RA_OF_ASC_NODE = 27.0680
ARG_OF_PERICENTER = 250.6097
MEAN_ANOMALY   = 109.3357

EPHEMERIS_TYPE = 0
CLASSIFICATION_TYPE = U
NORAD_CAT_ID   = 54039
ELEMENT_SET_NO = 999
REV_AT_EPOCH   = 18355
BSTAR          = .5768104E-3
MEAN_MOTION_DOT = .43541E-3
MEAN_MOTION_DDOT = 0

CCSDS_OMM_VERS = 2.0
CREATION_DATE  = 
ORIGINATOR     = 

OBJECT_NAME    = GSLV R/B
OBJECT_ID      = 2022-138AN
CENTER_NAME    = EARTH
REF_FRAME      = TEME
TIME_SYSTEM    = UTC
MEAN_ELEMENT_THEORY = SGP/SGP4

EPOCH          = 2026-01-24T10:58:26.411232
MEAN_MOTION    = 14.96415850
ECCENTRICITY   = .00200095
INCLINATION    = 87.3846
RA_OF_ASC_NODE = 181.1655
ARG_OF_PERICENTER = 316.9978
MEAN_ANOMALY   = 42.9689

EPHEMERIS_TYPE = 0
CLASSIFICATION_TYPE = U
NORAD_CAT_ID   = 54149
ELEMENT_SET_NO = 999
REV_AT_EPOCH   = 17731
BSTAR          = .43615086E-3
MEAN_MOTION_DOT = .4988E-4
MEAN_MOTION_DDOT = 0

CCSDS_OMM_VERS = 2.0
CREATION_DATE  = 
ORIGINATOR     = 

OBJECT_NAME    = XRISM
OBJECT_ID      = 2023-137A
CENTER_NAME    = EARTH
REF_FRAME      = TEME
TIME_SYSTEM    = UTC
MEAN_ELEMENT_THEORY = SGP/SGP4

EPOCH          = 2026-01-24T20:23:37.764960
MEAN_MOTION    = 15.10907348
ECCENTRICITY   = .00080109
INCLINATION    = 31.0009
RA_OF_ASC_NODE = 207.0954
ARG_OF_PERICENTER = 319.4981
MEAN_ANOMALY   = 40.5061

EPHEMERIS_TYPE = 0
CLASSIFICATION_TYPE = U
NORAD_CAT_ID   = 57800
ELEMENT_SET_NO = 999
REV_AT_EPOCH   = 13115
BSTAR          = .45452688E-3
MEAN_MOTION_DOT = .7863E-4
MEAN_MOTION_DDOT = 0

CCSDS_OMM_VERS = 2.0
CREATION_DATE  = 
ORIGINATOR     = 

OBJECT_NAME    = ACS3
OBJECT_ID      = 2024-077B
CENTER_NAME    = EARTH
REF_FRAME      = TEME
TIME_SYSTEM    = UTC
MEAN_ELEMENT_THEORY = SGP/SGP4

EPOCH          = 2026-01-24T11:21:17.782272
MEAN_MOTION    = 13.87674288
ECCENTRICITY   = .00505005
INCLINATION    = 97.2334
RA_OF_ASC_NODE = 335.5206
ARG_OF_PERICENTER = 223.3581
MEAN_ANOMALY   = 136.3604

EPHEMERIS_TYPE = 0
CLASSIFICATION_TYPE = U
NORAD_CAT_ID   = 59588
ELEMENT_SET_NO = 999
REV_AT_EPOCH   = 8806
BSTAR          = .19927456E-1
MEAN_MOTION_DOT = .23874E-3
MEAN_MOTION_DDOT = 0

CCSDS_OMM_VERS = 2.0
CREATION_DATE  = 
ORIGINATOR     = 

OBJECT_NAME    = SZ-21 MODULE
OBJECT_ID      = 2025-246C
CENTER_NAME    = EARTH
REF_FRAME      = TEME
TIME_SYSTEM    = UTC
MEAN_ELEMENT_THEORY = SGP/SGP4

EPOCH          = 2026-01-24T14:01:00.620544
MEAN_MOTION    = 15.65208053
ECCENTRICITY   = .00032059
INCLINATION    = 41.4751
RA_OF_ASC_NODE = 114.1792
ARG_OF_PERICENTER = 232.2838
MEAN_ANOMALY   = 127.7712

EPHEMERIS_TYPE = 0
CLASSIFICATION_TYPE = U
NORAD_CAT_ID   = 66515
ELEMENT_SET_NO = 999
REV_AT_EPOCH   = 1115
BSTAR          = .37964666E-3
MEAN_MOTION_DOT = .38549E-3
MEAN_MOTION_DDOT = 0

