CZ-2C R/B               
1 54039U 22132E   26024.94235473  .00043541  00000+0  57681-3 0  9998
2 54039  97.2960  27.0680 0016667 250.6097 109.3357 15.58003215183554
GSLV R/B                
1 54149U 22138AN  26024.45725013  .00004988  00000+0  43615-3 0  9990
2 54149  87.3846 181.1655 0020009 316.9978  42.9689 14.96415850177312
XRISM                   
1 57800U 23137A   26024.84974265  .00007863  00000+0  45453-3 0  9992
2 57800  31.0009 207.0954 0008010 319.4981  40.5061 15.10907348131151
ACS3                    
1 59588U 24077B   26024.47312248  .00023874  00000+0  19927-1 0  9992
2 59588  97.2334 335.5206 0050500 223.3581 136.3604 13.87674288 88062
SZ-21 MODULE            
1 66515U 25246C   26024.58403496  .00038549  00000+0  37965-3 0  9996
2 66515  41.4751 114.1792 0003205 232.2838 127.7712 15.65208053 11150
